[{"OBJECT_NAME":"STARLINK-30516","OBJECT_ID":"2023-151W","EPOCH":"2026-03-09T04:28:17.903712","MEAN_MOTION":15.02532534,"ECCENTRICITY":0.00013964,"INCLINATION":43.0067,"RA_OF_ASC_NODE":354.6049,"ARG_OF_PERICENTER":263.8526,"MEAN_ANOMALY":96.2158,"EPHEMERIS_TYPE":0,"CLASSIFICATION_TYPE":"U","NORAD_CAT_ID":57984,"ELEMENT_SET_NO":999,"REV_AT_EPOCH":13550,"BSTAR":-5.3591274e-5,"MEAN_MOTION_DOT":-9.27e-6,"MEAN_MOTION_DDOT":0},{"OBJECT_NAME":"TIUNGSAT-1 (MO-46)","OBJECT_ID":"2000-057D","EPOCH":"2026-03-09T15:36:52.176096","MEAN_MOTION":15.01128781,"ECCENTRICITY":0.003692,"INCLINATION":64.5465,"RA_OF_ASC_NODE":82.7132,"ARG_OF_PERICENTER":302.2682,"MEAN_ANOMALY":57.4857,"EPHEMERIS_TYPE":0,"CLASSIFICATION_TYPE":"U","NORAD_CAT_ID":26548,"ELEMENT_SET_NO":999,"REV_AT_EPOCH":38128,"BSTAR":0.00030184,"MEAN_MOTION_DOT":3.762e-5,"MEAN_MOTION_DDOT":0}]
